[{"OBJECT_NAME":"SCS-01 B","OBJECT_ID":"2025-100B","EPOCH":"2026-03-09T21:49:11.508672","MEAN_MOTION":15.3317485,"ECCENTRICITY":0.00088698,"INCLINATION":97.3706,"RA_OF_ASC_NODE":145.9041,"ARG_OF_PERICENTER":288.6157,"MEAN_ANOMALY":71.4122,"EPHEMERIS_TYPE":0,"CLASSIFICATION_TYPE":"U","NORAD_CAT_ID":63983,"ELEMENT_SET_NO":999,"REV_AT_EPOCH":4567,"BSTAR":0.00098809397,"MEAN_MOTION_DOT":0.00031724,"MEAN_MOTION_DDOT":0},{"OBJECT_NAME":"STARLINK-34924","OBJECT_ID":"2025-195M","EPOCH":"2026-03-09T20:14:46.901760","MEAN_MOTION":15.3020956,"ECCENTRICITY":0.00013263,"INCLINATION":53.1607,"RA_OF_ASC_NODE":257.7223,"ARG_OF_PERICENTER":75.7,"MEAN_ANOMALY":284.4148,"EPHEMERIS_TYPE":0,"CLASSIFICATION_TYPE":"U","NORAD_CAT_ID":65469,"ELEMENT_SET_NO":999,"REV_AT_EPOCH":3001,"BSTAR":0.00096057803,"MEAN_MOTION_DOT":0.00028207,"MEAN_MOTION_DDOT":0}]
